{
  "norad_id": 60542,
  "name": "QPS-SAR-8 (AMATERU-IV)",
  "history": [
    {
      "epoch": "2026-03-28T22:36:59.560128Z",
      "apogee_km": 559.7656369663646,
      "perigee_km": 553.7885731974775,
      "latitude_deg": -2.4709536599719082e-05,
      "longitude_deg": 2.2073716895757056,
      "height_km": 558.0176750055804,
      "semi_major_axis_km": 6934.914105081921,
      "eccentricity": 0.00043094,
      "inclination_deg": 97.6703,
      "raan_deg": 167.8111,
      "arg_perigee_deg": 52.6492,
      "mean_anomaly_deg": 307.5125,
      "mean_motion_rev_day": 15.03284337
    },
    {
      "epoch": "2026-03-29T05:00:23.521248Z",
      "apogee_km": 559.740037874184,
      "perigee_km": 553.7704826165655,
      "latitude_deg": 7.304047814068184e-05,
      "longitude_deg": -93.64110685106385,
      "height_km": 557.9708579247898,
      "semi_major_axis_km": 6934.892260245375,
      "eccentricity": 0.0004304,
      "inclination_deg": 97.6703,
      "raan_deg": 168.0749,
      "arg_perigee_deg": 51.9869,
      "mean_anomaly_deg": 308.1745,
      "mean_motion_rev_day": 15.0329144
    },
    {
      "epoch": "2026-03-30T04:58:07.880160Z",
      "apogee_km": 559.6411877253176,
      "perigee_km": 553.7743090681734,
      "latitude_deg": -5.67978409335445e-05,
      "longitude_deg": -93.0708152120377,
      "height_km": 557.8659729955482,
      "semi_major_axis_km": 6934.844748396745,
      "eccentricity": 0.000423,
      "inclination_deg": 97.6702,
      "raan_deg": 169.0641,
      "arg_perigee_deg": 49.737,
      "mean_anomaly_deg": 310.4224,
      "mean_motion_rev_day": 15.03306889
    },
    {
      "epoch": "2026-03-30T11:21:31.535424Z",
      "apogee_km": 559.6073943537967,
      "perigee_km": 553.7795015419497,
      "latitude_deg": 1.2047342516629488e-05,
      "longitude_deg": 171.08198823232257,
      "height_km": 557.8414925677112,
      "semi_major_axis_km": 6934.830447947873,
      "eccentricity": 0.00042019,
      "inclination_deg": 97.6702,
      "raan_deg": 169.3279,
      "arg_perigee_deg": 49.1452,
      "mean_anomaly_deg": 311.0137,
      "mean_motion_rev_day": 15.03311539
    },
    {
      "epoch": "2026-03-30T22:32:27.751776Z",
      "apogee_km": 559.5602798948385,
      "perigee_km": 553.7759589447305,
      "latitude_deg": -2.954445536746147e-06,
      "longitude_deg": 3.350115963620557,
      "height_km": 557.7885331153306,
      "semi_major_axis_km": 6934.805119419784,
      "eccentricity": 0.00041705,
      "inclination_deg": 97.6701,
      "raan_deg": 169.7895,
      "arg_perigee_deg": 48.0347,
      "mean_anomaly_deg": 312.1233,
      "mean_motion_rev_day": 15.03319775
    },
    {
      "epoch": "2026-03-31T11:19:14.650176Z",
      "apogee_km": 559.4917126431255,
      "perigee_km": 553.8007521312993,
      "latitude_deg": 6.853216766300223e-05,
      "longitude_deg": 171.65745373844152,
      "height_km": 557.7456999198359,
      "semi_major_axis_km": 6934.783232387212,
      "eccentricity": 0.00041032,
      "inclination_deg": 97.67,
      "raan_deg": 170.3171,
      "arg_perigee_deg": 46.5998,
      "mean_anomaly_deg": 313.5569,
      "mean_motion_rev_day": 15.03326892
    },
    {
      "epoch": "2026-04-01T04:53:33.700992Z",
      "apogee_km": 559.4128841170659,
      "perigee_km": 553.8220850515936,
      "latitude_deg": -6.176579261834746e-06,
      "longitude_deg": -91.9181683575941,
      "height_km": 557.6822028292582,
      "semi_major_axis_km": 6934.7544845843295,
      "eccentricity": 0.0004031,
      "inclination_deg": 97.6698,
      "raan_deg": 171.0425,
      "arg_perigee_deg": 44.607,
      "mean_anomaly_deg": 315.5479,
      "mean_motion_rev_day": 15.0333624
    }
  ]
}